[{"OBJECT_NAME":"STARLINK-4413","OBJECT_ID":"2022-084U","EPOCH":"2026-03-09T18:04:43.752288","MEAN_MOTION":15.01261476,"ECCENTRICITY":0.0001388,"INCLINATION":97.6031,"RA_OF_ASC_NODE":130.2576,"ARG_OF_PERICENTER":93.347,"MEAN_ANOMALY":266.7913,"EPHEMERIS_TYPE":0,"CLASSIFICATION_TYPE":"U","NORAD_CAT_ID":53207,"ELEMENT_SET_NO":999,"REV_AT_EPOCH":19932,"BSTAR":3.5798091e-5,"MEAN_MOTION_DOT":4.02e-6,"MEAN_MOTION_DDOT":0},{"OBJECT_NAME":"CZ-2C DEB","OBJECT_ID":"2014-059C","EPOCH":"2026-03-09T21:10:12.095616","MEAN_MOTION":14.89082619,"ECCENTRICITY":0.00574388,"INCLINATION":98.186,"RA_OF_ASC_NODE":178.5961,"ARG_OF_PERICENTER":246.4472,"MEAN_ANOMALY":113.0704,"EPHEMERIS_TYPE":0,"CLASSIFICATION_TYPE":"U","NORAD_CAT_ID":40263,"ELEMENT_SET_NO":999,"REV_AT_EPOCH":60828,"BSTAR":0.0019374157,"MEAN_MOTION_DOT":0.00018813,"MEAN_MOTION_DDOT":0}]
